QIANFAN-89              
1 63175U 25046S   26003.42948641  .00000275  00000+0  40636-3 0  9993
2 63175  88.9783 317.7946 0018508  64.1211 296.1846 13.50984895 50330
QIANFAN-90              
1 63176U 25046T   26003.45822045  .00000279  00000+0  41322-3 0  9993
2 63176  88.9783 317.7640 0015436  62.8252 297.4470 13.50984945 50354
QIANFAN-91              
1 66033U 25233A   26003.42542699  .00000186  00000+0  24671-3 0  9992
2 66033  88.9934  59.8998 0014965 341.4340  18.6266 13.56568279 10937
QIANFAN-92              
1 66034U 25233B   26003.49079970  .00000055  00000+0  67931-4 0  9999
2 66034  88.9918  59.8878 0014647 340.5443  19.5147 13.50256669 10948
QIANFAN-93              
1 66035U 25233C   26003.50745214  .00000072  00000+0  90834-4 0  9990
2 66035  88.9944  59.8954 0013331 340.2836  19.7799 13.52898614 10944
QIANFAN-94              
1 66036U 25233D   26003.50426526  .00000218  00000+0  23952-3 0  9991
2 66036  88.9942  59.8595 0014390 338.0359  22.0183 13.68548919 10968
QIANFAN-95              
1 66037U 25233E   26003.47334486  .00000419  00000+0  24236-3 0  9990
2 66037  88.9940  59.6165 0013228 341.7314  18.3392 14.07045189 11099
QIANFAN-96              
1 66038U 25233F   26003.45601999  .00000051  00000+0  57644-4 0  9997
2 66038  88.9937  59.9054 0014203 345.0648  15.0084 13.54499315 10936
